CSS (TIANHE)            
1 48274U 21035A   24279.57004690  .00046221  00000+0  47701-3 0  9997
2 48274  41.4655 129.9424 0002891 125.0321 235.0790 15.63966771196369
